[
  {
    "OBJECT_NAME": "STARLINK-34072",
    "OBJECT_ID": "25110F",
    "EPOCH": "2025-11-11T05:39:24.744384",
    "MEAN_MOTION": 15.31097507,
    "ECCENTRICITY": 0.0001207,
    "INCLINATION": 53.158,
    "RA_OF_ASC_NODE": 217.189,
    "ARG_OF_PERICENTER": 141.1461,
    "MEAN_ANOMALY": 218.9628,
    "EPHEMERIS_TYPE": 0,
    "CLASSIFICATION_TYPE": "U",
    "NORAD_CAT_ID": 64101,
    "ELEMENT_SET_NO": 999,
    "REV_AT_EPOCH": 2774,
    "BSTAR": 0.0013356000000000002,
    "MEAN_MOTION_DOT": 0.00040534,
    "MEAN_MOTION_DDOT": 0.0,
    "TLE_LINE1": "1 64101U 25110F   25315.23570306  .00040534  00000+0  13356-2 0  9998",
    "TLE_LINE2": "2 64101  53.1580 217.1890 0001207 141.1461 218.9628 15.31097507 27746",
    "COMMENT": "Grouped by shell and plane from TLE"
  },
  {
    "OBJECT_NAME": "STARLINK-34104",
    "OBJECT_ID": "25110G",
    "EPOCH": "2025-11-11T08:00:03.000384",
    "MEAN_MOTION": 15.30191918,
    "ECCENTRICITY": 0.0001347,
    "INCLINATION": 53.1589,
    "RA_OF_ASC_NODE": 216.6408,
    "ARG_OF_PERICENTER": 102.0065,
    "MEAN_ANOMALY": 124.1965,
    "EPHEMERIS_TYPE": 0,
    "CLASSIFICATION_TYPE": "U",
    "NORAD_CAT_ID": 64102,
    "ELEMENT_SET_NO": 999,
    "REV_AT_EPOCH": 591,
    "BSTAR": 0.0,
    "MEAN_MOTION_DOT": -3.59e-05,
    "MEAN_MOTION_DDOT": 0.0,
    "TLE_LINE1": "1 64102U 25110G   25315.33336806 -.00003590  00000+0 -10916-3 0  9998",
    "TLE_LINE2": "2 64102  53.1589 216.6408 0001347 102.0065 124.1965 15.30191918  5913",
    "COMMENT": "Grouped by shell and plane from TLE"
  },
  {
    "OBJECT_NAME": "STARLINK-34179",
    "OBJECT_ID": "25110H",
    "EPOCH": "2025-11-11T02:44:39.138432",
    "MEAN_MOTION": 15.30210774,
    "ECCENTRICITY": 0.0001688,
    "INCLINATION": 53.1593,
    "RA_OF_ASC_NODE": 217.8551,
    "ARG_OF_PERICENTER": 57.7822,
    "MEAN_ANOMALY": 302.3343,
    "EPHEMERIS_TYPE": 0,
    "CLASSIFICATION_TYPE": "U",
    "NORAD_CAT_ID": 64103,
    "ELEMENT_SET_NO": 999,
    "REV_AT_EPOCH": 2772,
    "BSTAR": 0.0011186,
    "MEAN_MOTION_DOT": 0.00032929,
    "MEAN_MOTION_DDOT": 0.0,
    "TLE_LINE1": "1 64103U 25110H   25315.11434188  .00032929  00000+0  11186-2 0  9992",
    "TLE_LINE2": "2 64103  53.1593 217.8551 0001688  57.7822 302.3343 15.30210774 27721",
    "COMMENT": "Grouped by shell and plane from TLE"
  },
  {
    "OBJECT_NAME": "STARLINK-34176",
    "OBJECT_ID": "25110J",
    "EPOCH": "2025-11-11T00:00:02.999808",
    "MEAN_MOTION": 15.30185937,
    "ECCENTRICITY": 0.0001238,
    "INCLINATION": 53.1572,
    "RA_OF_ASC_NODE": 218.3161,
    "ARG_OF_PERICENTER": 81.2554,
    "MEAN_ANOMALY": 43.7083,
    "EPHEMERIS_TYPE": 0,
    "CLASSIFICATION_TYPE": "U",
    "NORAD_CAT_ID": 64104,
    "ELEMENT_SET_NO": 999,
    "REV_AT_EPOCH": 586,
    "BSTAR": 0.00015787,
    "MEAN_MOTION_DOT": 4.317e-05,
    "MEAN_MOTION_DDOT": 0.0,
    "TLE_LINE1": "1 64104U 25110J   25315.00003472  .00004317  00000+0  15787-3 0  9991",
    "TLE_LINE2": "2 64104  53.1572 218.3161 0001238  81.2554  43.7083 15.30185937  5867",
    "COMMENT": "Grouped by shell and plane from TLE"
  },
  {
    "OBJECT_NAME": "STARLINK-33949",
    "OBJECT_ID": "25110K",
    "EPOCH": "2025-11-11T04:05:01.672800",
    "MEAN_MOTION": 15.30228713,
    "ECCENTRICITY": 0.0001336,
    "INCLINATION": 53.1573,
    "RA_OF_ASC_NODE": 217.49,
    "ARG_OF_PERICENTER": 90.8216,
    "MEAN_ANOMALY": 269.2938,
    "EPHEMERIS_TYPE": 0,
    "CLASSIFICATION_TYPE": "U",
    "NORAD_CAT_ID": 64105,
    "ELEMENT_SET_NO": 999,
    "REV_AT_EPOCH": 2773,
    "BSTAR": 0.0017757,
    "MEAN_MOTION_DOT": 0.00052654,
    "MEAN_MOTION_DDOT": 0.0,
    "TLE_LINE1": "1 64105U 25110K   25315.17015825  .00052654  00000+0  17757-2 0  9990",
    "TLE_LINE2": "2 64105  53.1573 217.4900 0001336  90.8216 269.2938 15.30228713 27734",
    "COMMENT": "Grouped by shell and plane from TLE"
  },
  {
    "OBJECT_NAME": "STARLINK-33970",
    "OBJECT_ID": "25110L",
    "EPOCH": "2025-11-11T08:00:03.000384",
    "MEAN_MOTION": 15.30177943,
    "ECCENTRICITY": 0.000165,
    "INCLINATION": 53.1574,
    "RA_OF_ASC_NODE": 216.6281,
    "ARG_OF_PERICENTER": 79.2717,
    "MEAN_ANOMALY": 152.7708,
    "EPHEMERIS_TYPE": 0,
    "CLASSIFICATION_TYPE": "U",
    "NORAD_CAT_ID": 64106,
    "ELEMENT_SET_NO": 999,
    "REV_AT_EPOCH": 570,
    "BSTAR": 1.5831e-05,
    "MEAN_MOTION_DOT": 1.09e-06,
    "MEAN_MOTION_DDOT": 0.0,
    "TLE_LINE1": "1 64106U 25110L   25315.33336806  .00000109  00000+0  15831-4 0  9995",
    "TLE_LINE2": "2 64106  53.1574 216.6281 0001650  79.2717 152.7708 15.30177943  5707",
    "COMMENT": "Grouped by shell and plane from TLE"
  },
  {
    "OBJECT_NAME": "STARLINK-33912",
    "OBJECT_ID": "25110M",
    "EPOCH": "2025-11-11T08:00:03.000384",
    "MEAN_MOTION": 15.30197983,
    "ECCENTRICITY": 0.0001532,
    "INCLINATION": 53.1582,
    "RA_OF_ASC_NODE": 216.5818,
    "ARG_OF_PERICENTER": 62.4332,
    "MEAN_ANOMALY": 192.7456,
    "EPHEMERIS_TYPE": 0,
    "CLASSIFICATION_TYPE": "U",
    "NORAD_CAT_ID": 64107,
    "ELEMENT_SET_NO": 999,
    "REV_AT_EPOCH": 592,
    "BSTAR": 0.00070056,
    "MEAN_MOTION_DOT": 0.00020445,
    "MEAN_MOTION_DDOT": 0.0,
    "TLE_LINE1": "1 64107U 25110M   25315.33336806  .00020445  00000+0  70056-3 0  9990",
    "TLE_LINE2": "2 64107  53.1582 216.5818 0001532  62.4332 192.7456 15.30197983  5922",
    "COMMENT": "Grouped by shell and plane from TLE"
  },
  {
    "OBJECT_NAME": "STARLINK-34156",
    "OBJECT_ID": "25110N",
    "EPOCH": "2025-11-11T08:00:03.000384",
    "MEAN_MOTION": 15.30177739,
    "ECCENTRICITY": 0.0001102,
    "INCLINATION": 53.1593,
    "RA_OF_ASC_NODE": 216.4775,
    "ARG_OF_PERICENTER": 79.5618,
    "MEAN_ANOMALY": 228.0959,
    "EPHEMERIS_TYPE": 0,
    "CLASSIFICATION_TYPE": "U",
    "NORAD_CAT_ID": 64108,
    "ELEMENT_SET_NO": 999,
    "REV_AT_EPOCH": 591,
    "BSTAR": 2.9552e-05,
    "MEAN_MOTION_DOT": 5.16e-06,
    "MEAN_MOTION_DDOT": 0.0,
    "TLE_LINE1": "1 64108U 25110N   25315.33336806  .00000516  00000+0  29552-4 0  9994",
    "TLE_LINE2": "2 64108  53.1593 216.4775 0001102  79.5618 228.0959 15.30177739  5912",
    "COMMENT": "Grouped by shell and plane from TLE"
  },
  {
    "OBJECT_NAME": "STARLINK-34124",
    "OBJECT_ID": "25110P",
    "EPOCH": "2025-11-11T03:40:42.535776",
    "MEAN_MOTION": 15.30258764,
    "ECCENTRICITY": 4.3e-06,
    "INCLINATION": 53.1579,
    "RA_OF_ASC_NODE": 217.3826,
    "ARG_OF_PERICENTER": 315.9773,
    "MEAN_ANOMALY": 44.1224,
    "EPHEMERIS_TYPE": 0,
    "CLASSIFICATION_TYPE": "U",
    "NORAD_CAT_ID": 64109,
    "ELEMENT_SET_NO": 999,
    "REV_AT_EPOCH": 2773,
    "BSTAR": 0.0017992,
    "MEAN_MOTION_DOT": 0.0005341,
    "MEAN_MOTION_DDOT": 0.0,
    "TLE_LINE1": "1 64109U 25110P   25315.15327009  .00053410  00000+0  17992-2 0  9994",
    "TLE_LINE2": "2 64109  53.1579 217.3826 0000043 315.9773  44.1224 15.30258764 27730",
    "COMMENT": "Grouped by shell and plane from TLE"
  },
  {
    "OBJECT_NAME": "STARLINK-34145",
    "OBJECT_ID": "25110Q",
    "EPOCH": "2025-11-11T03:55:55.059744",
    "MEAN_MOTION": 15.30228746,
    "ECCENTRICITY": 0.0001656,
    "INCLINATION": 53.1565,
    "RA_OF_ASC_NODE": 217.4488,
    "ARG_OF_PERICENTER": 84.2735,
    "MEAN_ANOMALY": 275.8454,
    "EPHEMERIS_TYPE": 0,
    "CLASSIFICATION_TYPE": "U",
    "NORAD_CAT_ID": 64110,
    "ELEMENT_SET_NO": 999,
    "REV_AT_EPOCH": 2773,
    "BSTAR": 0.0014843,
    "MEAN_MOTION_DOT": 0.000439,
    "MEAN_MOTION_DDOT": 0.0,
    "TLE_LINE1": "1 64110U 25110Q   25315.16383171  .00043900  00000+0  14843-2 0  9994",
    "TLE_LINE2": "2 64110  53.1565 217.4488 0001656  84.2735 275.8454 15.30228746 27732",
    "COMMENT": "Grouped by shell and plane from TLE"
  },
  {
    "OBJECT_NAME": "STARLINK-34148",
    "OBJECT_ID": "25110R",
    "EPOCH": "2025-11-11T08:00:03.000384",
    "MEAN_MOTION": 15.30176097,
    "ECCENTRICITY": 0.0001,
    "INCLINATION": 53.1596,
    "RA_OF_ASC_NODE": 216.442,
    "ARG_OF_PERICENTER": 68.2411,
    "MEAN_ANOMALY": 256.8694,
    "EPHEMERIS_TYPE": 0,
    "CLASSIFICATION_TYPE": "U",
    "NORAD_CAT_ID": 64111,
    "ELEMENT_SET_NO": 999,
    "REV_AT_EPOCH": 591,
    "BSTAR": 1.2805e-05,
    "MEAN_MOTION_DOT": 2e-07,
    "MEAN_MOTION_DDOT": 0.0,
    "TLE_LINE1": "1 64111U 25110R   25315.33336806  .00000020  00000+0  12805-4 0  9991",
    "TLE_LINE2": "2 64111  53.1596 216.4420 0001000  68.2411 256.8694 15.30176097  5910",
    "COMMENT": "Grouped by shell and plane from TLE"
  },
  {
    "OBJECT_NAME": "STARLINK-34136",
    "OBJECT_ID": "25110S",
    "EPOCH": "2025-11-11T08:00:03.000384",
    "MEAN_MOTION": 15.30183778,
    "ECCENTRICITY": 0.0001033,
    "INCLINATION": 53.1589,
    "RA_OF_ASC_NODE": 216.5108,
    "ARG_OF_PERICENTER": 78.092,
    "MEAN_ANOMALY": 212.1148,
    "EPHEMERIS_TYPE": 0,
    "CLASSIFICATION_TYPE": "U",
    "NORAD_CAT_ID": 64112,
    "ELEMENT_SET_NO": 999,
    "REV_AT_EPOCH": 586,
    "BSTAR": 0.0,
    "MEAN_MOTION_DOT": -8.75e-06,
    "MEAN_MOTION_DDOT": 0.0,
    "TLE_LINE1": "1 64112U 25110S   25315.33336806 -.00000875  00000+0 -17436-4 0  9997",
    "TLE_LINE2": "2 64112  53.1589 216.5108 0001033  78.0920 212.1148 15.30183778  5864",
    "COMMENT": "Grouped by shell and plane from TLE"
  },
  {
    "OBJECT_NAME": "STARLINK-33839",
    "OBJECT_ID": "25110T",
    "EPOCH": "2025-11-11T08:00:03.000384",
    "MEAN_MOTION": 15.3017836,
    "ECCENTRICITY": 0.0001261,
    "INCLINATION": 53.1598,
    "RA_OF_ASC_NODE": 216.3728,
    "ARG_OF_PERICENTER": 79.9217,
    "MEAN_ANOMALY": 280.0822,
    "EPHEMERIS_TYPE": 0,
    "CLASSIFICATION_TYPE": "U",
    "NORAD_CAT_ID": 64113,
    "ELEMENT_SET_NO": 999,
    "REV_AT_EPOCH": 591,
    "BSTAR": 3.7387e-05,
    "MEAN_MOTION_DOT": 7.48e-06,
    "MEAN_MOTION_DDOT": 0.0,
    "TLE_LINE1": "1 64113U 25110T   25315.33336806  .00000748  00000+0  37387-4 0  9992",
    "TLE_LINE2": "2 64113  53.1598 216.3728 0001261  79.9217 280.0822 15.30178360  5913",
    "COMMENT": "Grouped by shell and plane from TLE"
  }
]